[{"OBJECT_NAME":"ONEWEB-0567","OBJECT_ID":"2023-004H","EPOCH":"2026-06-15T03:56:19.135104","MEAN_MOTION":13.18685852,"ECCENTRICITY":0.0001853,"INCLINATION":87.9159,"RA_OF_ASC_NODE":335.8734,"ARG_OF_PERICENTER":104.0869,"MEAN_ANOMALY":256.0469,"EPHEMERIS_TYPE":0,"CLASSIFICATION_TYPE":"U","NORAD_CAT_ID":55147,"ELEMENT_SET_NO":999,"REV_AT_EPOCH":16943,"BSTAR":1.6932e-05,"MEAN_MOTION_DOT":2e-07,"MEAN_MOTION_DDOT":0.0},{"OBJECT_NAME":"ONEWEB-0569","OBJECT_ID":"2023-004J","EPOCH":"2026-06-15T04:19:00.188256","MEAN_MOTION":13.13470036,"ECCENTRICITY":0.0001537,"INCLINATION":87.8958,"RA_OF_ASC_NODE":320.6191,"ARG_OF_PERICENTER":126.5722,"MEAN_ANOMALY":233.5549,"EPHEMERIS_TYPE":0,"CLASSIFICATION_TYPE":"U","NORAD_CAT_ID":55148,"ELEMENT_SET_NO":999,"REV_AT_EPOCH":16991,"BSTAR":0.0007289099999999999,"MEAN_MOTION_DOT":2.79e-06,"MEAN_MOTION_DDOT":0.0},{"OBJECT_NAME":"ONEWEB-0570","OBJECT_ID":"2023-004K","EPOCH":"2026-06-15T00:05:38.246496","MEAN_MOTION":13.18685533,"ECCENTRICITY":0.0002216,"INCLINATION":87.9157,"RA_OF_ASC_NODE":335.9031,"ARG_OF_PERICENTER":94.8472,"MEAN_ANOMALY":265.2914,"EPHEMERIS_TYPE":0,"CLASSIFICATION_TYPE":"U","NORAD_CAT_ID":55149,"ELEMENT_SET_NO":999,"REV_AT_EPOCH":16940,"BSTAR":-2.5336999999999998e-05,"MEAN_MOTION_DOT":3e-08,"MEAN_MOTION_DDOT":0.0},{"OBJECT_NAME":"ONEWEB-0571","OBJECT_ID":"2023-004L","EPOCH":"2026-06-15T05:23:43.302336","MEAN_MOTION":13.18688233,"ECCENTRICITY":0.000219,"INCLINATION":87.9158,"RA_OF_ASC_NODE":335.8585,"ARG_OF_PERICENTER":128.1398,"MEAN_ANOMALY":231.9932,"EPHEMERIS_TYPE":0,"CLASSIFICATION_TYPE":"U","NORAD_CAT_ID":55150,"ELEMENT_SET_NO":999,"REV_AT_EPOCH":16944,"BSTAR":1.7639e-05,"MEAN_MOTION_DOT":2e-07,"MEAN_MOTION_DDOT":0.0},{"OBJECT_NAME":"ONEWEB-0572","OBJECT_ID":"2023-004M","EPOCH":"2026-06-15T02:08:42.159840","MEAN_MOTION":13.17648822,"ECCENTRICITY":0.0001919,"INCLINATION":87.9134,"RA_OF_ASC_NODE":6.2828,"ARG_OF_PERICENTER":94.0394,"MEAN_ANOMALY":266.0957,"EPHEMERIS_TYPE":0,"CLASSIFICATION_TYPE":"U","NORAD_CAT_ID":55151,"ELEMENT_SET_NO":999,"REV_AT_EPOCH":16720,"BSTAR":-3.9921e-05,"MEAN_MOTION_DOT":-3e-08,"MEAN_MOTION_DDOT":0.0},{"OBJECT_NAME":"ONEWEB-0573","OBJECT_ID":"2023-004N","EPOCH":"2026-06-14T23:46:13.128672","MEAN_MOTION":13.18686133,"ECCENTRICITY":0.0002143,"INCLINATION":87.9159,"RA_OF_ASC_NODE":335.9066,"ARG_OF_PERICENTER":116.5765,"MEAN_ANOMALY":243.5587,"EPHEMERIS_TYPE":0,"CLASSIFICATION_TYPE":"U","NORAD_CAT_ID":55152,"ELEMENT_SET_NO":999,"REV_AT_EPOCH":16940,"BSTAR":-8.2104e-05,"MEAN_MOTION_DOT":-1.9e-07,"MEAN_MOTION_DDOT":0.0},{"OBJECT_NAME":"ONEWEB-0588","OBJECT_ID":"2023-004P","EPOCH":"2026-06-14T23:36:30.323520","MEAN_MOTION":13.18684713,"ECCENTRICITY":0.0002323,"INCLINATION":87.9157,"RA_OF_ASC_NODE":335.9082,"ARG_OF_PERICENTER":97.6035,"MEAN_ANOMALY":262.5361,"EPHEMERIS_TYPE":0,"CLASSIFICATION_TYPE":"U","NORAD_CAT_ID":55153,"ELEMENT_SET_NO":999,"REV_AT_EPOCH":16940,"BSTAR":0.00014051,"MEAN_MOTION_DOT":6.8e-07,"MEAN_MOTION_DDOT":0.0},{"OBJECT_NAME":"ONEWEB-0598","OBJECT_ID":"2023-004Q","EPOCH":"2026-06-15T02:24:20.424096","MEAN_MOTION":13.11419729,"ECCENTRICITY":0.000161,"INCLINATION":87.8887,"RA_OF_ASC_NODE":21.4845,"ARG_OF_PERICENTER":109.0489,"MEAN_ANOMALY":251.0813,"EPHEMERIS_TYPE":0,"CLASSIFICATION_TYPE":"U","NORAD_CAT_ID":55154,"ELEMENT_SET_NO":999,"REV_AT_EPOCH":16562,"BSTAR":-0.00072011,"MEAN_MOTION_DOT":-2.43e-06,"MEAN_MOTION_DDOT":0.0},{"OBJECT_NAME":"ONEWEB-0599","OBJECT_ID":"2023-004R","EPOCH":"2026-06-15T01:12:49.096800","MEAN_MOTION":13.17648418,"ECCENTRICITY":0.0001629,"INCLINATION":87.9133,"RA_OF_ASC_NODE":6.2894,"ARG_OF_PERICENTER":88.3414,"MEAN_ANOMALY":271.7904,"EPHEMERIS_TYPE":0,"CLASSIFICATION_TYPE":"U","NORAD_CAT_ID":55155,"ELEMENT_SET_NO":999,"REV_AT_EPOCH":16720,"BSTAR":-7.216e-05,"MEAN_MOTION_DOT":-1.5e-07,"MEAN_MOTION_DDOT":0.0},{"OBJECT_NAME":"ONEWEB-0614","OBJECT_ID":"2023-004S","EPOCH":"2026-06-15T02:17:00.500352","MEAN_MOTION":13.11417053,"ECCENTRICITY":0.0002035,"INCLINATION":87.8888,"RA_OF_ASC_NODE":21.4943,"ARG_OF_PERICENTER":82.5649,"MEAN_ANOMALY":277.571,"EPHEMERIS_TYPE":0,"CLASSIFICATION_TYPE":"U","NORAD_CAT_ID":55156,"ELEMENT_SET_NO":999,"REV_AT_EPOCH":16556,"BSTAR":-0.0014608,"MEAN_MOTION_DOT":-5.05e-06,"MEAN_MOTION_DDOT":0.0},{"OBJECT_NAME":"ONEWEB-0616","OBJECT_ID":"2023-004T","EPOCH":"2026-06-15T00:24:13.495104","MEAN_MOTION":13.17649189,"ECCENTRICITY":0.0001001,"INCLINATION":87.9134,"RA_OF_ASC_NODE":6.2995,"ARG_OF_PERICENTER":71.1913,"MEAN_ANOMALY":288.9327,"EPHEMERIS_TYPE":0,"CLASSIFICATION_TYPE":"U","NORAD_CAT_ID":55157,"ELEMENT_SET_NO":999,"REV_AT_EPOCH":16741,"BSTAR":0.00017549000000000002,"MEAN_MOTION_DOT":8.1e-07,"MEAN_MOTION_DDOT":0.0},{"OBJECT_NAME":"ONEWEB-0617","OBJECT_ID":"2023-004U","EPOCH":"2026-06-15T03:49:47.844192","MEAN_MOTION":13.11416137,"ECCENTRICITY":0.0002249,"INCLINATION":87.889,"RA_OF_ASC_NODE":21.4719,"ARG_OF_PERICENTER":85.6005,"MEAN_ANOMALY":274.538,"EPHEMERIS_TYPE":0,"CLASSIFICATION_TYPE":"U","NORAD_CAT_ID":55158,"ELEMENT_SET_NO":999,"REV_AT_EPOCH":16559,"BSTAR":-0.0017668,"MEAN_MOTION_DOT":-6.13e-06,"MEAN_MOTION_DDOT":0.0},{"OBJECT_NAME":"ONEWEB-0618","OBJECT_ID":"2023-004V","EPOCH":"2026-06-15T01:47:31.759296","MEAN_MOTION":15.13126283,"ECCENTRICITY":0.0009978,"INCLINATION":86.9089,"RA_OF_ASC_NODE":178.4924,"ARG_OF_PERICENTER":310.6626,"MEAN_ANOMALY":49.3746,"EPHEMERIS_TYPE":0,"CLASSIFICATION_TYPE":"U","NORAD_CAT_ID":55159,"ELEMENT_SET_NO":999,"REV_AT_EPOCH":18194,"BSTAR":0.00018014,"MEAN_MOTION_DOT":3.226e-05,"MEAN_MOTION_DDOT":0.0},{"OBJECT_NAME":"ONEWEB-0619","OBJECT_ID":"2023-004W","EPOCH":"2026-06-15T01:10:23.821248","MEAN_MOTION":13.17648868,"ECCENTRICITY":0.0001976,"INCLINATION":87.9144,"RA_OF_ASC_NODE":6.274,"ARG_OF_PERICENTER":75.4789,"MEAN_ANOMALY":284.6562,"EPHEMERIS_TYPE":0,"CLASSIFICATION_TYPE":"U","NORAD_CAT_ID":55160,"ELEMENT_SET_NO":999,"REV_AT_EPOCH":16731,"BSTAR":-3.5964e-05,"MEAN_MOTION_DOT":-1e-08,"MEAN_MOTION_DDOT":0.0},{"OBJECT_NAME":"ONEWEB-0620","OBJECT_ID":"2023-004X","EPOCH":"2026-06-15T03:42:27.275904","MEAN_MOTION":13.11415276,"ECCENTRICITY":0.0001909,"INCLINATION":87.8885,"RA_OF_ASC_NODE":21.4817,"ARG_OF_PERICENTER":94.1083,"MEAN_ANOMALY":266.0264,"EPHEMERIS_TYPE":0,"CLASSIFICATION_TYPE":"U","NORAD_CAT_ID":55161,"ELEMENT_SET_NO":999,"REV_AT_EPOCH":16556,"BSTAR":-0.0020661,"MEAN_MOTION_DOT":-7.2e-06,"MEAN_MOTION_DDOT":0.0},{"OBJECT_NAME":"ONEWEB-0621","OBJECT_ID":"2023-004Y","EPOCH":"2026-06-15T02:31:39.933984","MEAN_MOTION":13.11419669,"ECCENTRICITY":0.0002012,"INCLINATION":87.8898,"RA_OF_ASC_NODE":21.4804,"ARG_OF_PERICENTER":81.409,"MEAN_ANOMALY":278.7266,"EPHEMERIS_TYPE":0,"CLASSIFICATION_TYPE":"U","NORAD_CAT_ID":55162,"ELEMENT_SET_NO":999,"REV_AT_EPOCH":16553,"BSTAR":-3.0767e-05,"MEAN_MOTION_DOT":2e-08,"MEAN_MOTION_DDOT":0.0},{"OBJECT_NAME":"ONEWEB-0622","OBJECT_ID":"2023-004Z","EPOCH":"2026-06-15T02:39:00.179136","MEAN_MOTION":13.11419198,"ECCENTRICITY":0.0002549,"INCLINATION":87.8899,"RA_OF_ASC_NODE":21.4818,"ARG_OF_PERICENTER":89.7407,"MEAN_ANOMALY":270.4013,"EPHEMERIS_TYPE":0,"CLASSIFICATION_TYPE":"U","NORAD_CAT_ID":55163,"ELEMENT_SET_NO":999,"REV_AT_EPOCH":16552,"BSTAR":0.00034541,"MEAN_MOTION_DOT":1.35e-06,"MEAN_MOTION_DDOT":0.0},{"OBJECT_NAME":"ONEWEB-0623","OBJECT_ID":"2023-004AA","EPOCH":"2026-06-15T02:52:26.634144","MEAN_MOTION":13.17649475,"ECCENTRICITY":0.0002568,"INCLINATION":87.913,"RA_OF_ASC_NODE":6.2903,"ARG_OF_PERICENTER":78.3693,"MEAN_ANOMALY":281.7727,"EPHEMERIS_TYPE":0,"CLASSIFICATION_TYPE":"U","NORAD_CAT_ID":55164,"ELEMENT_SET_NO":999,"REV_AT_EPOCH":16731,"BSTAR":-8.692900000000001e-05,"MEAN_MOTION_DOT":-2.1e-07,"MEAN_MOTION_DDOT":0.0},{"OBJECT_NAME":"ONEWEB-0624","OBJECT_ID":"2023-004AB","EPOCH":"2026-06-15T01:27:53.983008","MEAN_MOTION":13.12927194,"ECCENTRICITY":0.0001891,"INCLINATION":87.8945,"RA_OF_ASC_NODE":351.0085,"ARG_OF_PERICENTER":88.0315,"MEAN_ANOMALY":272.1031,"EPHEMERIS_TYPE":0,"CLASSIFICATION_TYPE":"U","NORAD_CAT_ID":55165,"ELEMENT_SET_NO":999,"REV_AT_EPOCH":16779,"BSTAR":-0.0002052,"MEAN_MOTION_DOT":-6.2e-07,"MEAN_MOTION_DDOT":0.0},{"OBJECT_NAME":"ONEWEB-0625","OBJECT_ID":"2023-004AC","EPOCH":"2026-06-15T02:37:52.561632","MEAN_MOTION":13.17649205,"ECCENTRICITY":0.0001732,"INCLINATION":87.9134,"RA_OF_ASC_NODE":6.2876,"ARG_OF_PERICENTER":84.5616,"MEAN_ANOMALY":275.5713,"EPHEMERIS_TYPE":0,"CLASSIFICATION_TYPE":"U","NORAD_CAT_ID":55166,"ELEMENT_SET_NO":999,"REV_AT_EPOCH":16730,"BSTAR":-0.00018658,"MEAN_MOTION_DOT":-6e-07,"MEAN_MOTION_DDOT":0.0},{"OBJECT_NAME":"ONEWEB-0626","OBJECT_ID":"2023-004AD","EPOCH":"2026-06-15T02:23:17.960352","MEAN_MOTION":13.17649766,"ECCENTRICITY":0.0001852,"INCLINATION":87.9133,"RA_OF_ASC_NODE":6.2892,"ARG_OF_PERICENTER":101.4328,"MEAN_ANOMALY":258.7012,"EPHEMERIS_TYPE":0,"CLASSIFICATION_TYPE":"U","NORAD_CAT_ID":55167,"ELEMENT_SET_NO":999,"REV_AT_EPOCH":16730,"BSTAR":-0.00015517,"MEAN_MOTION_DOT":-4.7e-07,"MEAN_MOTION_DDOT":0.0},{"OBJECT_NAME":"ONEWEB-0627","OBJECT_ID":"2023-004AE","EPOCH":"2026-06-15T02:06:16.342560","MEAN_MOTION":13.17648465,"ECCENTRICITY":0.0002307,"INCLINATION":87.9133,"RA_OF_ASC_NODE":6.292,"ARG_OF_PERICENTER":81.5563,"MEAN_ANOMALY":278.583,"EPHEMERIS_TYPE":0,"CLASSIFICATION_TYPE":"U","NORAD_CAT_ID":55168,"ELEMENT_SET_NO":999,"REV_AT_EPOCH":16730,"BSTAR":-2.7153e-06,"MEAN_MOTION_DOT":1.2e-07,"MEAN_MOTION_DDOT":0.0},{"OBJECT_NAME":"ONEWEB-0628","OBJECT_ID":"2023-004AF","EPOCH":"2026-06-14T21:20:27.146112","MEAN_MOTION":13.12444517,"ECCENTRICITY":0.0002357,"INCLINATION":87.8946,"RA_OF_ASC_NODE":351.11,"ARG_OF_PERICENTER":78.7531,"MEAN_ANOMALY":281.3863,"EPHEMERIS_TYPE":0,"CLASSIFICATION_TYPE":"U","NORAD_CAT_ID":55169,"ELEMENT_SET_NO":999,"REV_AT_EPOCH":16773,"BSTAR":0.0012072,"MEAN_MOTION_DOT":4.47e-06,"MEAN_MOTION_DDOT":0.0}]